{
  "type": "FeatureCollection",
  "features": [
    {
      "type": "Feature",
      "properties": {
        "norad_id": 40069,
        "name": "METEOR-M 2",
        "group": "weather",
        "lat": -52.65013419214665,
        "lon": 123.95231052934972,
        "alt_km": 824.2837757747984,
        "timestamp": "2025-12-03T06:58:42.883958+00:00",
        "meta_object_name": "METEOR-M 2",
        "meta_object_id": "2014-037A",
        "meta_epoch": "2025-12-02T21:26:10.225824",
        "meta_mean_motion": 14.21380338,
        "meta_eccentricity": 0.0004697,
        "meta_inclination": 98.4892,
        "meta_ra_of_asc_node": 314.8557,
        "meta_arg_of_pericenter": 242.8517,
        "meta_mean_anomaly": 117.2182,
        "meta_ephemeris_type": 0,
        "meta_classification_type": "U",
        "meta_norad_cat_id": 40069,
        "meta_element_set_no": 999,
        "meta_rev_at_epoch": 59143,
        "meta_bstar": 0.00012529,
        "meta_mean_motion_dot": 2.32e-06,
        "meta_mean_motion_ddot": 0,
        "tle_line1": "1 40069U 14037A   25336.89317391  .00000232  00000+0  12529-3 0  9992",
        "tle_line2": "2 40069  98.4892 314.8557 0004697 242.8517 117.2182 14.21380338591436"
      },
      "geometry": {
        "type": "Point",
        "coordinates": [
          123.95231052934972,
          -52.65013419214665
        ]
      }
    },
    {
      "type": "Feature",
      "properties": {
        "norad_id": 40267,
        "name": "HIMAWARI-8",
        "group": "weather",
        "lat": 0.0012538980234982316,
        "lon": -42.276591898229704,
        "alt_km": 35782.293132388826,
        "timestamp": "2025-12-03T06:58:42.883971+00:00",
        "meta_object_name": "HIMAWARI-8",
        "meta_object_id": "2014-060A",
        "meta_epoch": "2025-12-02T19:38:24.690048",
        "meta_mean_motion": 1.00270755,
        "meta_eccentricity": 0.0001197,
        "meta_inclination": 0.036,
        "meta_ra_of_asc_node": 140.7873,
        "meta_arg_of_pericenter": 141.9762,
        "meta_mean_anomaly": 224.4384,
        "meta_ephemeris_type": 0,
        "meta_classification_type": "U",
        "meta_norad_cat_id": 40267,
        "meta_element_set_no": 999,
        "meta_rev_at_epoch": 4079,
        "meta_bstar": 0,
        "meta_mean_motion_dot": -2.55e-06,
        "meta_mean_motion_ddot": 0,
        "tle_line1": "1 40267U 14060A   25336.81834132 -.00000255  00000+0  00000+0 0  9990",
        "tle_line2": "2 40267   0.0360 140.7873 0001197 141.9762 224.4384  1.00270755 40792"
      },
      "geometry": {
        "type": "Point",
        "coordinates": [
          -42.276591898229704,
          0.0012538980234982316
        ]
      }
    },
    {
      "type": "Feature",
      "properties": {
        "norad_id": 40367,
        "name": "FENGYUN 2G",
        "group": "weather",
        "lat": -1.907722738968302,
        "lon": -83.31080465454632,
        "alt_km": 35774.6881361383,
        "timestamp": "2025-12-03T06:58:42.883983+00:00",
        "meta_object_name": "FENGYUN 2G",
        "meta_object_id": "2014-090A",
        "meta_epoch": "2025-12-02T19:23:41.667360",
        "meta_mean_motion": 1.00267744,
        "meta_eccentricity": 0.0003067,
        "meta_inclination": 5.141,
        "meta_ra_of_asc_node": 75.2124,
        "meta_arg_of_pericenter": 193.3464,
        "meta_mean_anomaly": 193.9973,
        "meta_ephemeris_type": 0,
        "meta_classification_type": "U",
        "meta_norad_cat_id": 40367,
        "meta_element_set_no": 999,
        "meta_rev_at_epoch": 4003,
        "meta_bstar": 0,
        "meta_mean_motion_dot": -2.84e-06,
        "meta_mean_motion_ddot": 0,
        "tle_line1": "1 40367U 14090A   25336.80812115 -.00000284  00000+0  00000+0 0  9992",
        "tle_line2": "2 40367   5.1410  75.2124 0003067 193.3464 193.9973  1.00267744 40039"
      },
      "geometry": {
        "type": "Point",
        "coordinates": [
          -83.31080465454632,
          -1.907722738968302
        ]
      }
    },
    {
      "type": "Feature",
      "properties": {
        "norad_id": 40732,
        "name": "METEOSAT-11 (MSG-4)",
        "group": "weather",
        "lat": 2.449707070658754,
        "lon": -173.46825634235648,
        "alt_km": 35783.34169755412,
        "timestamp": "2025-12-03T06:58:42.883994+00:00",
        "meta_object_name": "METEOSAT-11 (MSG-4)",
        "meta_object_id": "2015-034A",
        "meta_epoch": "2025-12-02T17:15:16.468704",
        "meta_mean_motion": 1.0027758,
        "meta_eccentricity": 2.58e-05,
        "meta_inclination": 2.7105,
        "meta_ra_of_asc_node": 72.0266,
        "meta_arg_of_pericenter": 160.8786,
        "meta_mean_anomaly": 107.1897,
        "meta_ephemeris_type": 0,
        "meta_classification_type": "U",
        "meta_norad_cat_id": 40732,
        "meta_element_set_no": 999,
        "meta_rev_at_epoch": 524,
        "meta_bstar": 0,
        "meta_mean_motion_dot": 8.3e-07,
        "meta_mean_motion_ddot": 0,
        "tle_line1": "1 40732U 15034A   25336.71894061  .00000083  00000+0  00000+0 0  9993",
        "tle_line2": "2 40732   2.7105  72.0266 0000258 160.8786 107.1897  1.00277580  5241"
      },
      "geometry": {
        "type": "Point",
        "coordinates": [
          -173.46825634235648,
          2.449707070658754
        ]
      }
    },
    {
      "type": "Feature",
      "properties": {
        "norad_id": 41105,
        "name": "ELEKTRO-L 2",
        "group": "weather",
        "lat": 6.193825428870975,
        "lon": 162.47824288448132,
        "alt_km": 35790.72699525925,
        "timestamp": "2025-12-03T06:58:42.884007+00:00",
        "meta_object_name": "ELEKTRO-L 2",
        "meta_object_id": "2015-074A",
        "meta_epoch": "2025-12-02T01:43:47.338752",
        "meta_mean_motion": 1.00269907,
        "meta_eccentricity": 0.00039368,
        "meta_inclination": 6.1965,
        "meta_ra_of_asc_node": 72.9528,
        "meta_arg_of_pericenter": 196.8313,
        "meta_mean_anomaly": 172.831,
        "meta_ephemeris_type": 0,
        "meta_classification_type": "U",
        "meta_norad_cat_id": 41105,
        "meta_element_set_no": 999,
        "meta_rev_at_epoch": 3653,
        "meta_bstar": 0,
        "meta_mean_motion_dot": -9.8e-07,
        "meta_mean_motion_ddot": 0,
        "tle_line1": "1 41105U 15074A   25336.07207568 -.00000098  00000+0  00000+0 0  9998",
        "tle_line2": "2 41105   6.1965  72.9528 0003936 196.8313 172.8310  1.00269907 36538"
      },
      "geometry": {
        "type": "Point",
        "coordinates": [
          162.47824288448132,
          6.193825428870975
        ]
      }
    },
    {
      "type": "Feature",
      "properties": {
        "norad_id": 41752,
        "name": "INSAT-3DR",
        "group": "weather",
        "lat": -0.01035022541988856,
        "lon": -108.98331483500277,
        "alt_km": 35728.48964163703,
        "timestamp": "2025-12-03T06:58:42.884019+00:00",
        "meta_object_name": "INSAT-3DR",
        "meta_object_id": "2016-054A",
        "meta_epoch": "2025-12-02T20:18:05.563008",
        "meta_mean_motion": 1.00269587,
        "meta_eccentricity": 0.0014435,
        "meta_inclination": 0.066,
        "meta_ra_of_asc_node": 89.4077,
        "meta_arg_of_pericenter": 179.492,
        "meta_mean_anomaly": 181.6028,
        "meta_ephemeris_type": 0,
        "meta_classification_type": "U",
        "meta_norad_cat_id": 41752,
        "meta_element_set_no": 999,
        "meta_rev_at_epoch": 3385,
        "meta_bstar": 0,
        "meta_mean_motion_dot": -5.7e-07,
        "meta_mean_motion_ddot": 0,
        "tle_line1": "1 41752U 16054A   25336.84589772 -.00000057  00000+0  00000+0 0  9995",
        "tle_line2": "2 41752   0.0660  89.4077 0014435 179.4920 181.6028  1.00269587 33850"
      },
      "geometry": {
        "type": "Point",
        "coordinates": [
          -108.98331483500277,
          -0.01035022541988856
        ]
      }
    },
    {
      "type": "Feature",
      "properties": {
        "norad_id": 41836,
        "name": "HIMAWARI-9",
        "group": "weather",
        "lat": -0.004637513855309013,
        "lon": -42.23130312372603,
        "alt_km": 35777.419860938615,
        "timestamp": "2025-12-03T06:58:42.884031+00:00",
        "meta_object_name": "HIMAWARI-9",
        "meta_object_id": "2016-064A",
        "meta_epoch": "2025-12-02T14:27:13.680288",
        "meta_mean_motion": 1.00267704,
        "meta_eccentricity": 0.0002434,
        "meta_inclination": 0.0196,
        "meta_ra_of_asc_node": 328.9268,
        "meta_arg_of_pericenter": 333.8392,
        "meta_mean_anomaly": 126.4815,
        "meta_ephemeris_type": 0,
        "meta_classification_type": "U",
        "meta_norad_cat_id": 41836,
        "meta_element_set_no": 999,
        "meta_rev_at_epoch": 3323,
        "meta_bstar": 0,
        "meta_mean_motion_dot": 0,
        "meta_mean_motion_ddot": 0,
        "tle_line1": "1 41836U 16064A   25336.60224167  .00000000  00000+0  00000+0 0  9994",
        "tle_line2": "2 41836   0.0196 328.9268 0002434 333.8392 126.4815  1.00267704 33237"
      },
      "geometry": {
        "type": "Point",
        "coordinates": [
          -42.23130312372603,
          -0.004637513855309013
        ]
      }
    }
  ]
}